PAKSAT-1R               
1 37779U 11042A   26186.58422517  .00000167  00000+0  00000+0 0  9990
2 37779   0.7337  84.4425 0003112 356.2848  91.1836  1.00275839 54669
SES-2                   
1 37809U 11049A   26186.55943839 -.00000182  00000+0  00000+0 0  9991
2 37809   0.1028  92.5708 0002888  10.7618 294.6242  1.00271715 54147
ARABSAT-5C              
1 37810U 11049B   26186.50926102  .00000137  00000+0  00000+0 0  9991
2 37810   0.0563  29.6386 0003494  91.7452   5.4444  1.00273328 54227
EUTELSAT 7 WEST A       
1 37816U 11051A   26186.57512514 -.00000047  00000+0  00000+0 0  9996
2 37816   0.0615  13.3071 0004633 102.3690   7.6222  1.00271370 54066
QUETZSAT 1              
1 37826U 11054A   26186.56143174 -.00000228  00000+0  00000+0 0  9992
2 37826   0.0261 304.1730 0002865 166.6671 297.8377  1.00271451 50053
INTELSAT 18 (IS-18)     
1 37834U 11056A   26186.45117868  .00000066  00000+0  00000+0 0  9991
2 37834   0.0188 292.5048 0001922 180.8739 152.4864  1.00271952 53997
EUTELSAT 16A            
1 37836U 11057A   26186.57989183  .00000117  00000+0  00000+0 0  9991
2 37836   0.0390 348.1822 0005805 112.7622  47.3785  1.00270081  7525
VIASAT-1                
1 37843U 11059A   26183.85521115  .00000000  00000+0  00000+0 0  9997
2 37843   0.0211  26.3466 0002317  77.4105   9.9113  1.00270964 47480
ASIASAT 7               
1 37933U 11069A   26186.59761404 -.00000320  00000+0  00000+0 0  9995
2 37933   0.0131 331.3532 0001307 113.4907 159.4015  1.00269993 45045
BEIDOU-2 IGSO-5         
1 37948U 11073A   26183.72937883 -.00000128  00000+0  00000+0 0  9990
2 37948  47.6496 271.3544 0114527 222.0502 141.5350  1.00270596 53296
LUCH-5A                 
1 37951U 11074B   26186.52685935 -.00000040  00000+0  00000+0 0  9997
2 37951   8.7972  73.5399 0002631  49.0308 157.5704  1.00272663 53231
NIGCOMSAT 1R            
1 38014U 11077A   26186.58509185  .00000158  00000+0  00000+0 0  9998
2 38014   0.0128 195.8237 0002503 157.2268 183.6431  1.00272821 53147
WGS F4 (USA 233)        
1 38070U 12003A   26183.79930490  .00000000  00000+0  00000+0 0  9993
2 38070   0.0212  33.4355 0001623  91.9508 171.6061  1.00267905 44305
SES-4                   
1 38087U 12007A   26183.36433681 -.00000158  00000+0  00000+0 0  9993
2 38087   0.0229  41.5467 0002404  57.1982 290.8171  1.00271083 52377
BEIDOU-2 G5             
1 38091U 12008A   26186.58821186  .00000069  00000+0  00000+0 0  9997
2 38091   3.6167  69.5870 0007531 274.4870 210.0166  1.00268338 52553
MUOS-1                  
1 38093U 12009A   26186.55692505 -.00000116  00000+0  00000+0 0  9992
2 38093   5.5128  47.1338 0057412   2.9115 334.0316  1.00272402 52622
INTELSAT 22 (IS-22)     
1 38098U 12011A   26186.59102735 -.00000045  00000+0  00000+0 0  9996
2 38098   0.0226  59.3829 0001711  42.6977 106.3595  1.00271439  7374
APSTAR-7                
1 38107U 12013A   26186.67920340 -.00000088  00000+0  00000+0 0  9995
2 38107   0.0344  89.6905 0003296  22.8439 132.1656  1.00271782 51993
YAHSAT 1B               
1 38245U 12016A   26183.23556196  .00000137  00000+0  00000+0 0  9998
2 38245   0.0892  88.9189 0003263  30.5528 293.2016  1.00267795 45754
AEHF-2 (USA 235)        
1 38254U 12019A   26186.43081035 -.00000124  00000+0  00000+0 0  9998
2 38254   6.6918  57.3542 0002161  46.2421 318.3999  1.00272947  7178
JCSAT-13                
1 38331U 12023A   26186.52999257 -.00000343  00000+0  00000+0 0  9996
2 38331   0.0149  58.5163 0002822  55.9521 123.8585  1.00272654 51727
VINASAT-2               
1 38332U 12023B   26186.60280601 -.00000315  00000+0  00000+0 0  9991
2 38332   0.0136 355.4986 0002373 111.8398 165.1208  1.00272121 46848
NIMIQ 6                 
1 38342U 12026A   26186.55865839 -.00000160  00000+0  00000+0 0  9999
2 38342   0.0333 280.7915 0002766 186.8228 285.9566  1.00271413 50598
ZHONGXING-2A            
1 38352U 12028A   26186.65794185 -.00000279  00000+0  00000+0 0  9999
2 38352   1.4996  83.6597 0001948  26.5246 148.5576  1.00270335 51482
INTELSAT 19 (IS-19)     
1 38356U 12030A   26186.52670656 -.00000043  00000+0  00000+0 0  9997
2 38356   0.0165  41.7879 0003285  73.6475 163.6990  1.00271542 50635
ECHOSTAR 17             
1 38551U 12035A   26184.91584470 -.00000064  00000+0  00000+0 0  9991
2 38551   0.0187  28.8424 0001943  71.1266  44.5707  1.00271043 51234
SES-5                   
1 38652U 12036A   26183.65487642  .00000044  00000+0  00000+0 0  9994
2 38652   0.0450 320.1883 0002267 138.1529  63.0821  1.00270830 44612
INTELSAT 20 (IS-20)     
1 38740U 12043A   26186.37628846 -.00000011  00000+0  00000+0 0  9990
2 38740   0.0105  54.7951 0001292 124.8987 307.6269  1.00270808 50930
HYLAS 2                 
1 38741U 12043B   26186.56229840 -.00000245  00000+0  00000+0 0  9992
2 38741   2.4716  80.8546 0002605  44.9970 287.5604  1.00271497 50954
INTELSAT 21 (IS-21)     
1 38749U 12045A   26186.49392095 -.00000271  00000+0  00000+0 0  9996
2 38749   0.0175 297.3430 0001840 184.2465 281.7196  1.00271265 50707
ASTRA 2F                
1 38778U 12051A   26186.58231850  .00000164  00000+0  00000+0 0  9996
2 38778   0.0642 250.6127 0002547 287.0731 343.7337  1.00273418 41322
