OBJECT_NAME,OBJECT_ID,EPOCH,MEAN_MOTION,ECCENTRICITY,INCLINATION,RA_OF_ASC_NODE,ARG_OF_PERICENTER,MEAN_ANOMALY,EPHEMERIS_TYPE,CLASSIFICATION_TYPE,NORAD_CAT_ID,ELEMENT_SET_NO,REV_AT_EPOCH,BSTAR,MEAN_MOTION_DOT,MEAN_MOTION_DDOT
PAKSAT-1R,2011-042A,2026-07-05T14:01:17.054688,1.00275839,.00031124,0.7337,84.4425,356.2848,91.1836,0,U,37779,999,5466,0,.167E-5,0
SES-2,2011-049A,2026-07-05T13:25:35.476896,1.00271715,.00028883,0.1028,92.5708,10.7618,294.6242,0,U,37809,999,5414,0,-.182E-5,0
ARABSAT-5C,2011-049B,2026-07-05T12:13:20.152128,1.00273328,.0003494,0.0563,29.6386,91.7452,5.4444,0,U,37810,999,5422,0,.137E-5,0
EUTELSAT 7 WEST A,2011-051A,2026-07-05T13:48:10.812096,1.00271370,.00046334,0.0615,13.3071,102.3690,7.6222,0,U,37816,999,5406,0,-.47E-6,0
QUETZSAT 1,2011-054A,2026-07-05T13:28:27.702336,1.00271451,.00028651,0.0261,304.1730,166.6671,297.8377,0,U,37826,999,5005,0,-.228E-5,0
INTELSAT 18 (IS-18),2011-056A,2026-07-05T10:49:41.837088,1.00271952,.0001923,0.0188,292.5048,180.8739,152.4864,0,U,37834,999,5399,0,.66E-6,0
EUTELSAT 16A,2011-057A,2026-07-05T13:55:02.654112,1.00270081,.00058058,0.0390,348.1822,112.7622,47.3785,0,U,37836,999,752,0,.117E-5,0
VIASAT-1,2011-059A,2026-07-02T20:31:30.243360,1.00270964,.00023173,0.0211,26.3466,77.4105,9.9113,0,U,37843,999,4748,0,0,0
ASIASAT 7,2011-069A,2026-07-05T14:20:33.853056,1.00269993,.00013072,0.0131,331.3532,113.4907,159.4015,0,U,37933,999,4504,0,-.32E-5,0
BEIDOU-2 IGSO-5,2011-073A,2026-07-02T17:30:18.330912,1.00270596,.01145273,47.6496,271.3544,222.0502,141.5350,0,U,37948,999,5329,0,-.128E-5,0
LUCH-5A,2011-074B,2026-07-05T12:38:40.647840,1.00272663,.0002631,8.7972,73.5399,49.0308,157.5704,0,U,37951,999,5323,0,-.4E-6,0
NIGCOMSAT 1R,2011-077A,2026-07-05T14:02:31.935840,1.00272821,.00025038,0.0128,195.8237,157.2268,183.6431,0,U,38014,999,5314,0,.158E-5,0
WGS F4 (USA 233),2012-003A,2026-07-02T19:10:59.943360,1.00267905,.00016231,0.0212,33.4355,91.9508,171.6061,0,U,38070,999,4430,0,0,0
SES-4,2012-007A,2026-07-02T08:44:38.700384,1.00271083,.0002404,0.0229,41.5467,57.1982,290.8171,0,U,38087,999,5237,0,-.158E-5,0
BEIDOU-2 G5,2012-008A,2026-07-05T14:07:01.504704,1.00268338,.00075318,3.6167,69.5870,274.4870,210.0166,0,U,38091,999,5255,0,.69E-6,0
MUOS-1,2012-009A,2026-07-05T13:21:58.324320,1.00272402,.00574123,5.5128,47.1338,2.9115,334.0316,0,U,38093,999,5262,0,-.116E-5,0
INTELSAT 22 (IS-22),2012-011A,2026-07-05T14:11:04.763040,1.00271439,.00017117,0.0226,59.3829,42.6977,106.3595,0,U,38098,999,737,0,-.45E-6,0
APSTAR-7,2012-013A,2026-07-05T16:18:03.173760,1.00271782,.00032969,0.0344,89.6905,22.8439,132.1656,0,U,38107,999,5199,0,-.88E-6,0
YAHSAT 1B,2012-016A,2026-07-02T05:39:12.553344,1.00267795,.0003263,0.0892,88.9189,30.5528,293.2016,0,U,38245,999,4575,0,.137E-5,0
AEHF-2 (USA 235),2012-019A,2026-07-05T10:20:22.014240,1.00272947,.0002162,6.6918,57.3542,46.2421,318.3999,0,U,38254,999,717,0,-.124E-5,0
JCSAT-13,2012-023A,2026-07-05T12:43:11.358048,1.00272654,.0002822,0.0149,58.5163,55.9521,123.8585,0,U,38331,999,5172,0,-.343E-5,0
VINASAT-2,2012-023B,2026-07-05T14:28:02.439264,1.00272121,.00023733,0.0136,355.4986,111.8398,165.1208,0,U,38332,999,4684,0,-.315E-5,0
NIMIQ 6,2012-026A,2026-07-05T13:24:28.084896,1.00271413,.00027663,0.0333,280.7915,186.8228,285.9566,0,U,38342,999,5059,0,-.16E-5,0
ZHONGXING-2A,2012-028A,2026-07-05T15:47:26.175840,1.00270335,.00019481,1.4996,83.6597,26.5246,148.5576,0,U,38352,999,5148,0,-.279E-5,0
INTELSAT 19 (IS-19),2012-030A,2026-07-05T12:38:27.445920,1.00271542,.0003286,0.0165,41.7879,73.6475,163.6990,0,U,38356,999,5063,0,-.43E-6,0
ECHOSTAR 17,2012-035A,2026-07-03T21:58:48.982080,1.00271043,.0001943,0.0187,28.8424,71.1266,44.5707,0,U,38551,999,5123,0,-.64E-6,0
SES-5,2012-036A,2026-07-02T15:43:01.322688,1.00270830,.00022676,0.0450,320.1883,138.1529,63.0821,0,U,38652,999,4461,0,.44E-6,0
INTELSAT 20 (IS-20),2012-043A,2026-07-05T09:01:51.322080,1.00270808,.0001292,0.0105,54.7951,124.8987,307.6269,0,U,38740,999,5093,0,-.11E-6,0
HYLAS 2,2012-043B,2026-07-05T13:29:42.581760,1.00271497,.00026057,2.4716,80.8546,44.9970,287.5604,0,U,38741,999,5095,0,-.245E-5,0
INTELSAT 21 (IS-21),2012-045A,2026-07-05T11:51:14.770080,1.00271265,.000184,0.0175,297.3430,184.2465,281.7196,0,U,38749,999,5070,0,-.271E-5,0
ASTRA 2F,2012-051A,2026-07-05T13:58:32.318400,1.00273418,.00025473,0.0642,250.6127,287.0731,343.7337,0,U,38778,999,4132,0,.164E-5,0
